NORAD_CAT_ID,OBJECT_NAME,OBJECT_TYPE,EPOCH,MEAN_MOTION,ECCENTRICITY,INCLINATION,RA_OF_ASC_NODE,ARG_OF_PERICENTER,MEAN_ANOMALY,BSTAR,MEAN_MOTION_DOT,MEAN_MOTION_DDOT,TLE_LINE0,TLE_LINE1,TLE_LINE2,SEMIMAJOR_AXIS,PERIOD,APOGEE,PERIGEE,DECAYED
51144.0,STARLINK-3185,PAYLOAD,2023-09-10 12:10:10,15.08840445,0.0001413,53.218,69.5787,87.6462,272.4692,5.0836e-05,5.21e-06,0.0,0 STARLINK-3185,1 51144U 22005AS  23253.50706026  .00000521  00000-0  50836-4 0  9999,2 51144  53.2180  69.5787 0001413  87.6462 272.4692 15.08840445 91180,6917.879,95.438,540.722,538.767,0.0
51144.0,STARLINK-3185,PAYLOAD,2023-09-10 18:31:43,15.08829337,0.0001095,53.2177,68.387,90.6044,269.5073,-6.8906e-05,-1.384e-05,0.0,0 STARLINK-3185,1 51144U 22005AS  23253.77202885 -.00001384  00000-0 -68906-4 0  9999,2 51144  53.2177  68.3870 0001095  90.6044 269.5073 15.08829337 92337,6917.913,95.438,540.535,539.02,0.0
51144.0,STARLINK-3185,PAYLOAD,2023-09-11 12:00:57,15.08836377,0.0001113,53.218,65.1166,93.7546,266.3574,2.1833e-05,6e-07,0.0,0 STARLINK-3185,1 51144U 22005AS  23254.50066660  .00000060  00000-0  21833-4 0  9996,2 51144  53.2180  65.1166 0001113  93.7546 266.3574 15.08836377 91338,6917.891,95.438,540.526,538.987,0.0
51144.0,STARLINK-3185,PAYLOAD,2023-09-11 18:22:29,15.08843896,0.0001081,53.2175,63.9281,90.5446,269.567,0.0001334,1.836e-05,0.0,0 STARLINK-3185,1 51144U 22005AS  23254.76562029  .00001836  00000-0  13340-3 0  9999,2 51144  53.2175  63.9281 0001081  90.5446 269.5670 15.08843896 92487,6917.868,95.437,540.481,538.986,0.0
51144.0,STARLINK-3185,PAYLOAD,2023-09-11 23:08:38,15.08851437,0.0001176,53.2177,63.0353,88.6998,271.4129,0.00014818,2.072e-05,0.0,0 STARLINK-3185,1 51144U 22005AS  23254.96433497  .00002072  00000-0  14818-3 0  9991,2 51144  53.2177  63.0353 0001176  88.6998 271.4129 15.08851437 92510,6917.845,95.437,540.524,538.897,0.0
51144.0,STARLINK-3185,PAYLOAD,2023-09-12 11:51:44,15.0883222,8.97e-05,53.2173,60.6587,76.1772,283.932,0.00011142,1.486e-05,0.0,0 STARLINK-3185,1 51144U 22005AS  23255.49426912  .00001486  00000-0  11142-3 0  9999,2 51144  53.2173  60.6587 0000897  76.1772 283.9320 15.08832220 91484,6917.904,95.438,540.39,539.149,0.0
51144.0,STARLINK-3185,PAYLOAD,2023-09-12 18:13:16,15.08842143,0.0001064,53.2181,59.4657,95.4806,264.6307,0.00012885,1.764e-05,0.0,0 STARLINK-3185,1 51144U 22005AS  23255.75922317  .00001764  00000-0  12885-3 0  9992,2 51144  53.2181  59.4657 0001064  95.4806 264.6307 15.08842143 92630,6917.874,95.437,540.475,539.003,0.0
51144.0,STARLINK-3185,PAYLOAD,2023-09-13 03:45:35,15.0884137,0.0001162,53.218,57.6831,92.9326,267.1799,0.00021505,3.136e-05,0.0,0 STARLINK-3185,1 51144U 22005AS  23256.15666420  .00003136  00000-0  21505-3 0  9991,2 51144  53.2180  57.6831 0001162  92.9326 267.1799 15.08841370 91588,6917.876,95.437,540.545,538.937,0.0
51144.0,STARLINK-3185,PAYLOAD,2023-09-13 18:04:03,15.08854997,0.0001163,53.2175,55.0073,89.1266,270.9859,0.00021505,3.138e-05,0.0,0 STARLINK-3185,1 51144U 22005AS  23256.75281554  .00003138  00000-0  21505-3 0  9990,2 51144  53.2175  55.0073 0001163  89.1266 270.9859 15.08854997 91672,6917.835,95.437,540.504,538.895,0.0
51144.0,STARLINK-3185,PAYLOAD,2023-09-14 09:57:55,15.08839115,0.0001366,53.2171,52.0329,83.5513,276.5635,7.8152e-05,9.56e-06,0.0,0 STARLINK-3185,1 51144U 22005AS  23257.41522429  .00000956  00000-0  78152-4 0  9999,2 51144  53.2171  52.0329 0001366  83.5513 276.5635 15.08839115 92880,6917.883,95.438,540.693,538.803,0.0
51144.0,STARLINK-3185,PAYLOAD,2023-09-14 11:33:18,15.08838929,0.0001356,53.2168,51.7355,81.6819,278.4327,2.4178e-05,9.7e-07,0.0,0 STARLINK-3185,1 51144U 22005AS  23257.48146298  .00000097  00000-0  24178-4 0  9997,2 51144  53.2168  51.7355 0001356  81.6819 278.4327 15.08838929 91787,6917.884,95.438,540.687,538.811,0.0
51144.0,STARLINK-3185,PAYLOAD,2023-09-14 17:54:51,15.08832995,0.0001067,53.217,50.545,88.3414,271.77,-9.5761e-05,-1.811e-05,0.0,0 STARLINK-3185,1 51144U 22005AS  23257.74642595 -.00001811  00000-0 -95761-4 0  9990,2 51144  53.2170  50.5450 0001067  88.3414 271.7700 15.08832995 91820,6917.902,95.438,540.505,539.029,0.0
51144.0,STARLINK-3185,PAYLOAD,2023-09-15 09:48:42,15.08838502,0.0001104,53.2178,47.5695,82.6457,277.466,5.7889e-05,6.34e-06,0.0,0 STARLINK-3185,1 51144U 22005AS  23258.40882811  .00000634  00000-0  57889-4 0  9990,2 51144  53.2178  47.5695 0001104  82.6457 277.4660 15.08838502 91920,6917.885,95.438,540.514,538.986,0.0
51144.0,STARLINK-3185,PAYLOAD,2023-09-15 16:10:14,15.08848654,0.0001127,53.2173,46.3828,78.1145,281.9974,0.00028347,4.227e-05,0.0,0 STARLINK-3185,1 51144U 22005AS  23258.67378355  .00004227  00000-0  28347-3 0  9990,2 51144  53.2173  46.3828 0001127  78.1145 281.9974 15.08848654 93074,6917.854,95.437,540.499,538.939,0.0
51144.0,STARLINK-3185,PAYLOAD,2023-09-16 09:39:29,15.08843516,0.0001419,53.2181,43.1125,77.2752,282.8399,0.00030453,4.562e-05,0.0,0 STARLINK-3185,1 51144U 22005AS  23259.40242812  .00004562  00000-0  30453-3 0  9993,2 51144  53.2181  43.1125 0001419  77.2752 282.8399 15.08843516 93181,6917.87,95.437,540.716,538.753,0.0
51144.0,STARLINK-3185,PAYLOAD,2023-09-17 09:30:17,15.08838813,0.0001292,53.2189,38.6517,84.7839,275.33,6.7778e-05,7.91e-06,0.0,0 STARLINK-3185,1 51144U 22005AS  23260.39603151  .00000791  00000-0  67778-4 0  9991,2 51144  53.2189  38.6517 0001292  84.7839 275.3300 15.08838813 93331,6917.884,95.438,540.643,538.855,0.0
51144.0,STARLINK-3185,PAYLOAD,2023-09-17 12:41:03,15.08839954,0.0001334,53.2185,38.0579,81.0343,279.0801,1.7528e-05,-9e-08,0.0,0 STARLINK-3185,1 51144U 22005AS  23260.52851091 -.00000009  00000-0  17528-4 0  9995,2 51144  53.2185  38.0579 0001334  81.0343 279.0801 15.08839954 92249,6917.881,95.438,540.668,538.823,0.0
51144.0,STARLINK-3185,PAYLOAD,2023-09-18 14:07:12,15.08852576,0.0001303,53.2199,33.3012,83.8981,276.216,0.0002102,3.06e-05,0.0,0 STARLINK-3185,1 51144U 22005AS  23261.58833995  .00003060  00000-0  21020-3 0  9995,2 51144  53.2199  33.3012 0001303  83.8981 276.2160 15.08852576 92408,6917.842,95.437,540.608,538.806,0.0
51144.0,STARLINK-3185,PAYLOAD,2023-09-18 15:42:35,15.08857753,0.0001253,53.2189,33.0026,87.5445,272.5691,0.00033309,5.02e-05,0.0,0 STARLINK-3185,1 51144U 22005AS  23261.65458096  .00005020  00000-0  33309-3 0  9999,2 51144  53.2189  33.0026 0001253  87.5445 272.5691 15.08857753 93523,6917.826,95.436,540.558,538.824,0.0
51144.0,STARLINK-3185,PAYLOAD,2023-09-19 01:14:54,15.08847703,0.0001399,53.2183,31.2185,83.99,276.1252,0.0001525,2.14e-05,0.0,0 STARLINK-3185,1 51144U 22005AS  23262.05202430  .00002140  00000-0  15250-3 0  9998,2 51144  53.2183  31.2185 0001399  83.9900 276.1252 15.08847703 93583,6917.857,95.437,540.69,538.754,0.0
51144.0,STARLINK-3185,PAYLOAD,2023-09-20 12:13:24,15.08825703,0.0001185,53.2188,24.6737,81.2591,278.8535,-0.0003157,-5.307e-05,0.0,0 STARLINK-3185,1 51144U 22005AS  23263.50931551 -.00005307  00000-0 -31570-3 0  9995,2 51144  53.2188  24.6737 0001185  81.2591 278.8535 15.08825703 93801,6917.924,95.438,540.609,538.969,0.0
51144.0,STARLINK-3185,PAYLOAD,2023-09-20 13:48:48,15.08823251,0.0001234,53.2188,24.3762,86.5004,273.6129,-0.00034142,-5.715e-05,0.0,0 STARLINK-3185,1 51144U 22005AS  23263.57555724 -.00005715  00000-0 -34142-3 0  9997,2 51144  53.2188  24.3762 0001234  86.5004 273.6129 15.08823251 92704,6917.932,95.439,540.65,538.943,0.0
51144.0,STARLINK-3185,PAYLOAD,2023-09-20 15:24:11,15.08820758,0.0001214,53.2187,24.0793,82.6524,277.4606,-0.00036043,-6.016e-05,0.0,0 STARLINK-3185,1 51144U 22005AS  23263.64179923 -.00006016  00000-0 -36043-3 0  9995,2 51144  53.2187  24.0793 0001214  82.6524 277.4606 15.08820758 92718,6917.939,95.439,540.644,538.964,0.0
51144.0,STARLINK-3185,PAYLOAD,2023-09-21 08:53:26,15.08828128,0.0001068,53.218,20.8116,64.8975,295.2128,4.451e-05,4.2e-06,0.0,0 STARLINK-3185,1 51144U 22005AS  23264.37044251  .00000420  00000-0  44510-4 0  9991,2 51144  53.2180  20.8116 0001068  64.8975 295.2128 15.08828128 93934,6917.917,95.438,540.521,539.043,0.0
51144.0,STARLINK-3185,PAYLOAD,2023-09-21 13:39:35,15.08839749,0.000102,53.2191,19.9203,67.1658,292.9442,0.00012615,1.72e-05,0.0,0 STARLINK-3185,1 51144U 22005AS  23264.56915745  .00001720  00000-0  12615-3 0  9991,2 51144  53.2191  19.9203 0001020  67.1658 292.9442 15.08839749 92858,6917.881,95.438,540.452,539.041,0.0
51144.0,STARLINK-3185,PAYLOAD,2023-09-21 15:14:58,15.08846636,0.0001198,53.2183,19.6204,73.7361,286.3763,0.00023662,3.481e-05,0.0,0 STARLINK-3185,1 51144U 22005AS  23264.63539523  .00003481  00000-0  23662-3 0  9995,2 51144  53.2183  19.6204 0001198  73.7361 286.3763 15.08846636 93977,6917.86,95.437,540.554,538.896,0.0
51144.0,STARLINK-3185,PAYLOAD,2023-09-22 08:44:13,15.08840296,0.0001343,53.2182,16.3507,63.3373,296.7756,0.00041106,6.26e-05,0.0,0 STARLINK-3185,1 51144U 22005AS  23265.36404387  .00006260  00000-0  41106-3 0  9996,2 51144  53.2182  16.3507 0001343  63.3373 296.7756 15.08840296 94082,6917.879,95.438,540.674,538.815,0.0
51144.0,STARLINK-3185,PAYLOAD,2023-09-22 13:30:22,15.08847081,0.0001268,53.2188,15.4588,65.5548,294.5577,0.00053114,8.177e-05,0.0,0 STARLINK-3185,1 51144U 22005AS  23265.56275964  .00008177  00000-0  53114-3 0  9996,2 51144  53.2188  15.4588 0001268  65.5548 294.5577 15.08847081 93008,6917.859,95.437,540.601,538.847,0.0
51144.0,STARLINK-3185,PAYLOAD,2023-09-22 15:05:45,15.08855631,0.0001407,53.2184,15.1617,67.9965,292.1176,0.00048697,7.474e-05,0.0,0 STARLINK-3185,1 51144U 22005AS  23265.62899660  .00007474  00000-0  48697-3 0  9997,2 51144  53.2184  15.1617 0001407  67.9965 292.1176 15.08855631 94121,6917.833,95.437,540.671,538.724,0.0
51144.0,STARLINK-3185,PAYLOAD,2023-09-23 00:38:03,15.08852651,0.0001203,53.2177,13.3782,69.2958,290.8163,0.00030174,4.519e-05,0.0,0 STARLINK-3185,1 51144U 22005AS  23266.02643513  .00004519  00000-0  30174-3 0  9994,2 51144  53.2177  13.3782 0001203  69.2958 290.8163 15.08852651 94183,6917.842,95.437,540.539,538.875,0.0
